{"type": "FeatureCollection", "features": [ {"type": "Feature", "properties": {"norad_id": 28649, "name": "IRS-P5 (CARTOSAT-1)", "group": "resource", "lat": 22.423883321703705, "lon": -164.18606001355323, "alt_km": 596.7345298125165, "timestamp": "2025-12-12T05:47:28.428419+00:00", "meta": {"OBJECT_NAME": "IRS-P5 (CARTOSAT-1)", "OBJECT_ID": "2005-017A", "EPOCH": "2025-12-12T00:15:14.736672", "MEAN_MOTION": 14.90400297, "ECCENTRICITY": 0.0001255, "INCLINATION": 97.5498, "RA_OF_ASC_NODE": 12.4561, "ARG_OF_PERICENTER": 46.7059, "MEAN_ANOMALY": 313.4264, "EPHEMERIS_TYPE": 0, "CLASSIFICATION_TYPE": "U", "NORAD_CAT_ID": 28649, "ELEMENT_SET_NO": 999, "REV_AT_EPOCH": 11593, "BSTAR": 0.00028648005, "MEAN_MOTION_DOT": 2.738e-05, "MEAN_MOTION_DDOT": 0}, "tle": {"line1": "1 28649U 05017A   25346.01058723  .00002738  00000+0  28648-3 0  9998", "line2": "2 28649  97.5498  12.4561 0001255  46.7059 313.4264 14.90400297115934"}}, "geometry": {"type": "Point", "coordinates": [-164.18606001355323, 22.423883321703705]}}, {"type": "Feature", "properties": {"norad_id": 28893, "name": "SINAH 1", "group": "resource", "lat": -18.060847189348525, "lon": -67.91816981495381, "alt_km": 679.9621843584937, "timestamp": "2025-12-12T05:47:28.428431+00:00", "meta": {"OBJECT_NAME": "SINAH 1", "OBJECT_ID": "2005-043D", "EPOCH": "2025-12-11T23:58:08.652864", "MEAN_MOTION": 14.6396133, "ECCENTRICITY": 0.00152976, "INCLINATION": 98.2602, "RA_OF_ASC_NODE": 114.5539, "ARG_OF_PERICENTER": 139.1778, "MEAN_ANOMALY": 221.0573, "EPHEMERIS_TYPE": 0, "CLASSIFICATION_TYPE": "U", "NORAD_CAT_ID": 28893, "ELEMENT_SET_NO": 999, "REV_AT_EPOCH": 7313, "BSTAR": 0.00016244136, "MEAN_MOTION_DOT": 8.03e-06, "MEAN_MOTION_DDOT": 0}, "tle": {"line1": "1 28893U 05043D   25345.99871126  .00000803  00000+0  16244-3 0  9994", "line2": "2 28893  98.2602 114.5539 0015297 139.1778 221.0573 14.63961330 73137"}}, "geometry": {"type": "Point", "coordinates": [-67.91816981495381, -18.060847189348525]}}, {"type": "Feature", "properties": {"norad_id": 29079, "name": "EROS B", "group": "resource", "lat": 20.223780240995527, "lon": 100.06656028069554, "alt_km": 364.44923776437554, "timestamp": "2025-12-12T05:47:28.428442+00:00", "meta": {"OBJECT_NAME": "EROS B", "OBJECT_ID": "2006-014A", "EPOCH": "2025-12-11T23:34:40.751904", "MEAN_MOTION": 15.67953513, "ECCENTRICITY": 0.00020082, "INCLINATION": 97.3465, "RA_OF_ASC_NODE": 102.5199, "ARG_OF_PERICENTER": 300.6011, "MEAN_ANOMALY": 59.5052, "EPHEMERIS_TYPE": 0, "CLASSIFICATION_TYPE": "U", "NORAD_CAT_ID": 29079, "ELEMENT_SET_NO": 999, "REV_AT_EPOCH": 9068, "BSTAR": 0.001736843, "MEAN_MOTION_DOT": 0.00195775, "MEAN_MOTION_DDOT": 0}, "tle": {"line1": "1 29079U 06014A   25345.98241611  .00195775  00000+0  17368-2 0  9999", "line2": "2 29079  97.3465 102.5199 0002008 300.6011  59.5052 15.67953513 90685"}}, "geometry": {"type": "Point", "coordinates": [100.06656028069554, 20.223780240995527]}}, {"type": "Feature", "properties": {"norad_id": 29228, "name": "RESURS-DK 1", "group": "resource", "lat": 31.78247238851189, "lon": 116.21760438275064, "alt_km": 530.7731111381545, "timestamp": "2025-12-12T05:47:28.428454+00:00", "meta": {"OBJECT_NAME": "RESURS-DK 1", "OBJECT_ID": "2006-021A", "EPOCH": "2025-12-11T18:31:39.602496", "MEAN_MOTION": 15.12152215, "ECCENTRICITY": 0.00073324, "INCLINATION": 69.9332, "RA_OF_ASC_NODE": 104.3392, "ARG_OF_PERICENTER": 260.6216, "MEAN_ANOMALY": 99.4121, "EPHEMERIS_TYPE": 0, "CLASSIFICATION_TYPE": "U", "NORAD_CAT_ID": 29228, "ELEMENT_SET_NO": 999, "REV_AT_EPOCH": 7423, "BSTAR": 0.00025315889, "MEAN_MOTION_DOT": 4.272e-05, "MEAN_MOTION_DDOT": 0}, "tle": {"line1": "1 29228U 06021A   25345.77198614  .00004272  00000+0  25316-3 0  9998", "line2": "2 29228  69.9332 104.3392 0007332 260.6216  99.4121 15.12152215 74234"}}, "geometry": {"type": "Point", "coordinates": [116.21760438275064, 31.78247238851189]}}, {"type": "Feature", "properties": {"norad_id": 29268, "name": "ARIRANG-2 (KOMPSAT-2)", "group": "resource", "lat": 75.17846160727869, "lon": 26.05608501134981, "alt_km": 679.972663872617, "timestamp": "2025-12-12T05:47:28.428465+00:00", "meta": {"OBJECT_NAME": "ARIRANG-2 (KOMPSAT-2)", "OBJECT_ID": "2006-031A", "EPOCH": "2025-12-12T01:07:33.547584", "MEAN_MOTION": 14.64493096, "ECCENTRICITY": 0.00135648, "INCLINATION": 97.8263, "RA_OF_ASC_NODE": 174.5535, "ARG_OF_PERICENTER": 311.6954, "MEAN_ANOMALY": 206.6136, "EPHEMERIS_TYPE": 0, "CLASSIFICATION_TYPE": "U", "NORAD_CAT_ID": 29268, "ELEMENT_SET_NO": 999, "REV_AT_EPOCH": 3408, "BSTAR": 0.00015771439, "MEAN_MOTION_DOT": 7.91e-06, "MEAN_MOTION_DDOT": 0}, "tle": {"line1": "1 29268U 06031A   25346.04691606  .00000791  00000+0  15771-3 0  9999", "line2": "2 29268  97.8263 174.5535 0013564 311.6954 206.6136 14.64493096 34087"}}, "geometry": {"type": "Point", "coordinates": [26.05608501134981, 75.17846160727869]}}, {"type": "Feature", "properties": {"norad_id": 29709, "name": "LAPAN-TUBSAT", "group": "resource", "lat": -1.1183646094867632, "lon": -23.452838032740846, "alt_km": 612.3855401924184, "timestamp": "2025-12-12T05:47:28.428476+00:00", "meta": {"OBJECT_NAME": "LAPAN-TUBSAT", "OBJECT_ID": "2007-001A", "EPOCH": "2025-12-11T23:19:50.251296", "MEAN_MOTION": 14.85667405, "ECCENTRICITY": 0.00136461, "INCLINATION": 98.1261, "RA_OF_ASC_NODE": 336.1126, "ARG_OF_PERICENTER": 76.1652, "MEAN_ANOMALY": 284.1079, "EPHEMERIS_TYPE": 0, "CLASSIFICATION_TYPE": "U", "NORAD_CAT_ID": 29709, "ELEMENT_SET_NO": 999, "REV_AT_EPOCH": 2335, "BSTAR": 9.0401816e-05, "MEAN_MOTION_DOT": 7.27e-06, "MEAN_MOTION_DDOT": 0}, "tle": {"line1": "1 29709U 07001A   25345.97210939  .00000727  00000+0  90402-4 0  9998", "line2": "2 29709  98.1261 336.1126 0013646  76.1652 284.1079 14.85667405 23355"}}, "geometry": {"type": "Point", "coordinates": [-23.452838032740846, -1.1183646094867632]}}, {"type": "Feature", "properties": {"norad_id": 31113, "name": "HAIYANG-1B", "group": "resource", "lat": -17.67395696073081, "lon": -26.783718577594385, "alt_km": 787.8573170923582, "timestamp": "2025-12-12T05:47:28.428486+00:00", "meta": {"OBJECT_NAME": "HAIYANG-1B", "OBJECT_ID": "2007-010A", "EPOCH": "2025-12-11T23:09:42.348672", "MEAN_MOTION": 14.30964631, "ECCENTRICITY": 0.00142872, "INCLINATION": 98.3314, "RA_OF_ASC_NODE": 330.2752, "ARG_OF_PERICENTER": 40.1135, "MEAN_ANOMALY": 320.11, "EPHEMERIS_TYPE": 0, "CLASSIFICATION_TYPE": "U", "NORAD_CAT_ID": 31113, "ELEMENT_SET_NO": 999, "REV_AT_EPOCH": 97385, "BSTAR": 9.6516912e-05, "MEAN_MOTION_DOT": 2.12e-06, "MEAN_MOTION_DDOT": 0}, "tle": {"line1": "1 31113U 07010A   25345.96507348  .00000212  00000+0  96517-4 0  9994", "line2": "2 31113  98.3314 330.2752 0014287  40.1135 320.1100 14.30964631973853"}}, "geometry": {"type": "Point", "coordinates": [-26.783718577594385, -17.67395696073081]}}, {"type": "Feature", "properties": {"norad_id": 31598, "name": "COSMO-SKYMED 1", "group": "resource", "lat": -61.896632802941824, "lon": -173.32447387223914, "alt_km": 587.8964820155725, "timestamp": "2025-12-12T05:47:28.428497+00:00", "meta": {"OBJECT_NAME": "COSMO-SKYMED 1", "OBJECT_ID": "2007-023A", "EPOCH": "2025-12-11T23:39:00.375264", "MEAN_MOTION": 14.95754646, "ECCENTRICITY": 0.00011431, "INCLINATION": 97.8835, "RA_OF_ASC_NODE": 171.3796, "ARG_OF_PERICENTER": 87.7891, "MEAN_ANOMALY": 272.346, "EPHEMERIS_TYPE": 0, "CLASSIFICATION_TYPE": "U", "NORAD_CAT_ID": 31598, "ELEMENT_SET_NO": 999, "REV_AT_EPOCH": 179, "BSTAR": 0.00054541862, "MEAN_MOTION_DOT": 6.022e-05, "MEAN_MOTION_DDOT": 0}, "tle": {"line1": "1 31598U 07023A   25345.98542101  .00006022  00000+0  54542-3 0  9999", "line2": "2 31598  97.8835 171.3796 0001143  87.7891 272.3460 14.95754646  1793"}}, "geometry": {"type": "Point", "coordinates": [-173.32447387223914, -61.896632802941824]}}, {"type": "Feature", "properties": {"norad_id": 31698, "name": "TERRASAR-X", "group": "resource", "lat": -82.46369395477893, "lon": 72.93228438915203, "alt_km": 517.0550324685273, "timestamp": "2025-12-12T05:47:28.428508+00:00", "meta": {"OBJECT_NAME": "TERRASAR-X", "OBJECT_ID": "2007-026A", "EPOCH": "2025-12-11T11:12:43.517376", "MEAN_MOTION": 15.19155336, "ECCENTRICITY": 0.00018891, "INCLINATION": 97.4455, "RA_OF_ASC_NODE": 350.8663, "ARG_OF_PERICENTER": 92.9175, "MEAN_ANOMALY": 267.2276, "EPHEMERIS_TYPE": 0, "CLASSIFICATION_TYPE": "U", "NORAD_CAT_ID": 31698, "ELEMENT_SET_NO": 999, "REV_AT_EPOCH": 2472, "BSTAR": 9.3381918e-05, "MEAN_MOTION_DOT": 1.895e-05, "MEAN_MOTION_DDOT": 0}, "tle": {"line1": "1 31698U 07026A   25345.46717034  .00001895  00000+0  93382-4 0  9994", "line2": "2 31698  97.4455 350.8663 0001889  92.9175 267.2276 15.19155336 24729"}}, "geometry": {"type": "Point", "coordinates": [72.93228438915203, -82.46369395477893]}}, {"type": "Feature", "properties": {"norad_id": 32060, "name": "WORLDVIEW-1 (WV-1)", "group": "resource", "lat": -79.50772451423727, "lon": -120.71264848310926, "alt_km": 499.61193526844, "timestamp": "2025-12-12T05:47:28.428519+00:00", "meta": {"OBJECT_NAME": "WORLDVIEW-1 (WV-1)", "OBJECT_ID": "2007-041A", "EPOCH": "2025-12-11T20:46:03.519264", "MEAN_MOTION": 15.24666793, "ECCENTRICITY": 7.755e-05, "INCLINATION": 97.3834, "RA_OF_ASC_NODE": 103.3584, "ARG_OF_PERICENTER": 106.7244, "MEAN_ANOMALY": 253.4079, "EPHEMERIS_TYPE": 0, "CLASSIFICATION_TYPE": "U", "NORAD_CAT_ID": 32060, "ELEMENT_SET_NO": 999, "REV_AT_EPOCH": 1434, "BSTAR": 0.00050526601, "MEAN_MOTION_DOT": 0.00012422, "MEAN_MOTION_DDOT": 0}, "tle": {"line1": "1 32060U 07041A   25345.86531851  .00012422  00000+0  50527-3 0  9991", "line2": "2 32060  97.3834 103.3584 0000775 106.7244 253.4079 15.24666793 14345"}}, "geometry": {"type": "Point", "coordinates": [-120.71264848310926, -79.50772451423727]}}]}